GSAT0220 (GALILEO 24)   
1 43567U 18060D   24194.06428442 -.00000087  00000+0  00000+0 0  9994
2 43567  57.3077   0.8021 0001350 295.5397  64.4540  1.70476157 37153
BEIDOU-3 M13            
1 43622U 18072A   24197.19983019 -.00000052  00000+0  00000+0 0  9994
2 43622  56.0135  85.9453 0006156 312.7224  47.2737  1.86231653 39582
BEIDOU-3 M14            
1 43623U 18072B   24198.13919436 -.00000049  00000+0  00000+0 0  9998
2 43623  56.0163  85.9070 0004816 347.0098  13.0266  1.86231557 39592
GPS BIII-1              
1 43873U 18109A   24198.02526211 -.00000014  00000+0  00000+0 0  9991
2 43873  55.3070 119.8893 0029410 194.2942 176.9827  2.00557431 40969
METEOR-M2 2             
1 44387U 19038A   24198.17172641  .00000108  00000+0  66993-4 0  9995
2 44387  98.8282 167.5118 0000588 172.5520 187.5667 14.23901816261517
GPS BIII-2              
1 44506U 19056A   24194.89130399 -.00000089  00000+0  00000+0 0  9998
2 44506  55.8409 359.0677 0043844 188.5157 342.8563  2.00572374 35949
BEIDOU-3 M23            
1 44542U 19061A   24197.44227746  .00000115  00000+0  00000+0 0  9990
2 44542  54.4421 206.4037 0008046 341.5878  18.4233  1.86229360 32729
BEIDOU-3 M24            
1 44543U 19061B   24197.57844378  .00000116  00000+0  00000+0 0  9992
2 44543  54.4403 206.3680 0005665 320.9462  42.7759  1.86231892 32734
BEIDOU-3 M21            
1 44793U 19078A   24197.82494986 -.00000090  00000+0  00000+0 0  9993
2 44793  54.5414 324.3709 0005428  32.9877 327.0518  1.86232313 31587
BEIDOU-3 M22            
1 44794U 19078B   24197.41771925 -.00000092  00000+0  00000+0 0  9992
2 44794  54.5153 324.3604 0003287  30.7797 329.2455  1.86232778 31589
ELEKTRO-L 3             
1 44903U 19095A   24198.15183126 -.00000078  00000+0  00000+0 0  9999
2 44903   0.0851 134.3970 0000608  17.8195 272.9445  1.00271295 16667
GPS BIII-3              
1 45854U 20041A   24197.47856846 -.00000057  00000+0  00000+0 0  9995
2 45854  56.1459  56.3160 0044473 192.9557 341.4922  2.00573360 29966
COSMOS 2547             
1 46805U 20075A   24196.46027941  .00000102  00000+0  00000+0 0  9993
2 46805  64.6007 215.9596 0009011 241.8706 118.0952  2.13103116 28930
GPS BIII-4              
1 46826U 20078A   24196.50535400  .00000054  00000+0  00000+0 0  9994
2 46826  54.1706 239.2986 0047618 197.9607 331.7167  2.00560381 27412
GSAT0223 (GALILEO 27)   
1 49809U 21116A   24196.87958988 -.00000077  00000+0  00000+0 0  9998
2 49809  57.2983   0.6209 0002379 162.3828 215.8742  1.70476249 16213
GSAT0224 (GALILEO 28)   
1 49810U 21116B   24197.86369237 -.00000074  00000+0  00000+0 0  9990
2 49810  57.2990   0.5930 0002185 146.0653 228.6670  1.70476255 16256
GOES 18                 
1 51850U 22021A   24198.24456002  .00000115  00000+0  00000+0 0  9998
2 51850   0.0339 194.2136 0000509 269.6109 141.7720  1.00271317  8775
METEOR-M2 3             
1 57166U 23091A   24198.20691811  .00000047  00000+0  39614-4 0  9999
2 57166  98.7111 252.6182 0004850  56.5091 303.6550 14.23904632 54750
METEOR-M2 4             
1 59051U 24039A   24198.19000934  .00000084  00000+0  57314-4 0  9993
2 59051  98.5990 159.3717 0007973  47.1800 313.0047 14.22238892 19617
